OBJECT_NAME,OBJECT_ID,EPOCH,MEAN_MOTION,ECCENTRICITY,INCLINATION,RA_OF_ASC_NODE,ARG_OF_PERICENTER,MEAN_ANOMALY,EPHEMERIS_TYPE,CLASSIFICATION_TYPE,NORAD_CAT_ID,ELEMENT_SET_NO,REV_AT_EPOCH,BSTAR,MEAN_MOTION_DOT,MEAN_MOTION_DDOT
ONEWEB-0068,2020-020Y,2026-06-26T11:04:38.198208,13.11417898,.00016877,87.8888,19.2179,82.7956,277.3364,0,U,45446,999,30381,.93169462E-3,.343E-5,0
ONEWEB-0046,2020-020Z,2026-06-26T10:52:36.969888,13.11418194,.00018996,87.8882,19.2249,78.7265,281.4076,0,U,45447,999,30382,-.67651406E-4,-.11E-6,0
ONEWEB-0063,2020-020AA,2026-06-26T13:24:11.541888,13.11414122,.0002095,87.8890,19.2033,83.4689,276.6677,0,U,45448,999,30392,.97859481E-3,.36E-5,0
ONEWEB-0019,2020-020AB,2026-06-26T07:00:28.260864,13.11418528,.00018196,87.8886,19.2424,92.1488,267.9849,0,U,45449,999,30373,-.97657344E-3,-.333E-5,0
ONEWEB-0094,2020-020AC,2026-06-26T11:12:42.263712,13.17647906,.00016473,87.9141,4.0035,91.7102,268.4218,0,U,45450,999,30753,.58383193E-4,.36E-6,0
ONEWEB-0087,2020-020AD,2026-06-26T11:48:34.047072,13.11414353,.00015576,87.8898,19.1913,81.7147,278.4157,0,U,45451,999,30380,.75556285E-4,.39E-6,0
ONEWEB-0082,2020-020AE,2026-06-26T13:33:33.643008,13.11414273,.00016326,87.8890,19.1926,72.3551,287.7755,0,U,45452,999,30390,.48933917E-3,.186E-5,0
ONEWEB-0050,2020-020AF,2026-06-26T14:37:37.045920,14.90413994,.00014691,88.9294,231.9312,0.6271,359.4960,0,U,45453,999,34178,.19995255E-3,.1968E-4,0
ONEWEB-0034,2020-020AG,2026-06-26T10:47:56.150016,13.11417633,.00018111,87.8892,19.2253,86.5062,273.6273,0,U,45454,999,30380,-.39615394E-3,-.128E-5,0
ONEWEB-0060,2020-020AH,2026-06-26T13:22:46.553664,13.11414180,.0000891,87.8882,19.2008,69.6411,290.4812,0,U,45455,999,30377,.1027424E-2,.377E-5,0
ONEWEB-0086,2020-020AJ,2026-06-26T11:02:11.729472,13.11417906,.00011561,87.8891,19.2164,103.4816,256.6440,0,U,45456,999,30382,.86401883E-3,.319E-5,0
ONEWEB-0088,2020-020AK,2026-06-26T06:50:53.155680,13.11415915,.00021129,87.8899,19.2246,77.5995,282.5369,0,U,45457,999,30373,-.14095679E-2,-.487E-5,0
ONEWEB-0102,2020-100A,2026-06-26T10:26:14.923680,13.12443112,.00017429,87.8942,348.8354,101.7529,258.3795,0,U,47258,999,26594,-.71187495E-3,-.243E-5,0
ONEWEB-0109,2020-100B,2026-06-26T10:38:27.126528,13.12443463,.00019206,87.8952,348.8178,96.5230,263.6117,0,U,47259,999,26577,-.18495558E-3,-.54E-6,0
ONEWEB-0110,2020-100C,2026-06-26T11:17:30.204672,13.12432686,.00015426,87.8953,348.7966,96.5735,263.5570,0,U,47260,999,26594,-.14862082E-2,-.522E-5,0
ONEWEB-0111,2020-100D,2026-06-26T12:01:23.482272,13.12442276,.0001757,87.8954,348.8094,91.2702,268.8627,0,U,47261,999,26578,-.84972476E-3,-.293E-5,0
ONEWEB-0114,2020-100E,2026-06-26T10:55:32.182176,13.12446694,.00019682,87.8953,348.8161,96.8178,263.3175,0,U,47262,999,26573,.93478804E-3,.349E-5,0
ONEWEB-0117,2020-100F,2026-06-26T10:43:19.240608,13.12445001,.00018018,87.8951,348.8083,93.3603,266.7732,0,U,47263,999,26574,.98007928E-4,.48E-6,0
ONEWEB-0118,2020-100G,2026-06-26T11:32:06.911520,13.12442892,.00021332,87.8952,348.8042,89.6091,270.5282,0,U,47264,999,26594,.5043982E-3,.194E-5,0
ONEWEB-0119,2020-100H,2026-06-26T12:08:42.096192,13.12443692,.00018476,87.8942,348.8152,92.9320,267.2020,0,U,47265,999,26592,-.12874085E-2,-.45E-5,0
ONEWEB-0120,2020-100J,2026-06-26T10:53:16.632672,13.12445296,.00019486,87.8941,348.8268,96.7782,263.3568,0,U,47266,999,26594,.85161898E-3,.319E-5,0
ONEWEB-0121,2020-100K,2026-06-26T10:35:59.623584,13.12444058,.00015815,87.8951,348.8161,85.0660,275.0650,0,U,47267,999,26585,-.72500693E-3,-.248E-5,0
ONEWEB-0122,2020-100L,2026-06-26T10:27:28.352448,13.12444245,.00018086,87.8954,348.8220,98.0477,262.0857,0,U,47268,999,26576,-.77496908E-3,-.266E-5,0
ONEWEB-0123,2020-100M,2026-06-26T10:21:21.243168,13.12442248,.00019318,87.8941,348.8290,90.9123,269.2227,0,U,47269,999,26590,-.92289658E-3,-.319E-5,0
ONEWEB-0124,2020-100N,2026-06-26T11:56:30.049728,13.12441057,.00017478,87.8941,348.8186,89.7366,270.3963,0,U,47270,999,26579,-.10650466E-2,-.37E-5,0
ONEWEB-0125,2020-100P,2026-06-26T11:24:47.972736,13.12441204,.00018248,87.8954,348.8076,82.3286,277.8049,0,U,47271,999,26585,.92786685E-3,.347E-5,0
ONEWEB-0126,2020-100Q,2026-06-26T11:54:16.755264,13.12442932,.00019312,87.8946,348.8183,94.7322,265.4027,0,U,47272,999,26592,-.77814355E-3,-.267E-5,0
ONEWEB-0127,2020-100R,2026-06-26T11:05:17.440224,13.12442508,.00019189,87.8940,348.8236,96.4316,263.7031,0,U,47273,999,26594,.12155756E-2,.45E-5,0
ONEWEB-0128,2020-100S,2026-06-26T11:36:59.690016,13.12441211,.00015221,87.8941,348.8330,96.1586,263.9716,0,U,47274,999,26596,.22047341E-3,.92E-6,0
ONEWEB-0129,2020-100T,2026-06-26T11:07:43.511520,13.12444009,.00027516,87.8951,348.8118,109.6124,250.5302,0,U,47275,999,26589,.12333298E-2,.456E-5,0
