ONEWEB-0068             
1 45446U 20020Y   26177.46155322  .00000343  00000+0  93169-3 0  9998
2 45446  87.8888  19.2179 0001687  82.7956 277.3364 13.11417898303810
ONEWEB-0046             
1 45447U 20020Z   26177.45320567 -.00000011  00000+0 -67651-4 0  9995
2 45447  87.8882  19.2249 0001899  78.7265 281.4076 13.11418194303823
ONEWEB-0063             
1 45448U 20020AA  26177.55846692  .00000360  00000+0  97859-3 0  9996
2 45448  87.8890  19.2033 0002095  83.4689 276.6677 13.11414122303927
ONEWEB-0019             
1 45449U 20020AB  26177.29199376 -.00000333  00000+0 -97657-3 0  9996
2 45449  87.8886  19.2424 0001819  92.1488 267.9849 13.11418528303731
ONEWEB-0094             
1 45450U 20020AC  26177.46715583  .00000036  00000+0  58383-4 0  9993
2 45450  87.9141   4.0035 0001647  91.7102 268.4218 13.17647906307533
ONEWEB-0087             
1 45451U 20020AD  26177.49206073  .00000039  00000+0  75556-4 0  9990
2 45451  87.8898  19.1913 0001557  81.7147 278.4157 13.11414353303803
ONEWEB-0082             
1 45452U 20020AE  26177.56497272  .00000186  00000+0  48934-3 0  9994
2 45452  87.8890  19.1926 0001632  72.3551 287.7755 13.11414273303908
ONEWEB-0050             
1 45453U 20020AF  26177.60945655  .00001968  00000+0  19995-3 0  9997
2 45453  88.9294 231.9312 0001469   0.6271 359.4960 14.90413994341783
ONEWEB-0034             
1 45454U 20020AG  26177.44995544 -.00000128  00000+0 -39615-3 0  9992
2 45454  87.8892  19.2253 0001811  86.5062 273.6273 13.11417633303800
ONEWEB-0060             
1 45455U 20020AH  26177.55748326  .00000377  00000+0  10274-2 0  9992
2 45455  87.8882  19.2008 0000891  69.6411 290.4812 13.11414180303771
ONEWEB-0086             
1 45456U 20020AJ  26177.45985798  .00000319  00000+0  86402-3 0  9991
2 45456  87.8891  19.2164 0001156 103.4816 256.6440 13.11417906303822
ONEWEB-0088             
1 45457U 20020AK  26177.28533745 -.00000487  00000+0 -14096-2 0  9991
2 45457  87.8899  19.2246 0002112  77.5995 282.5369 13.11415915303730
ONEWEB-0102             
1 47258U 20100A   26177.43489495 -.00000243  00000+0 -71187-3 0  9995
2 47258  87.8942 348.8354 0001742 101.7529 258.3795 13.12443112265947
ONEWEB-0109             
1 47259U 20100B   26177.44336952 -.00000054  00000+0 -18496-3 0  9990
2 47259  87.8952 348.8178 0001920  96.5230 263.6117 13.12443463265778
ONEWEB-0110             
1 47260U 20100C   26177.47048848 -.00000522  00000+0 -14862-2 0  9991
2 47260  87.8953 348.7966 0001542  96.5735 263.5570 13.12432686265941
ONEWEB-0111             
1 47261U 20100D   26177.50096623 -.00000293  00000+0 -84972-3 0  9995
2 47261  87.8954 348.8094 0001757  91.2702 268.8627 13.12442276265789
ONEWEB-0114             
1 47262U 20100E   26177.45523359  .00000349  00000+0  93479-3 0  9993
2 47262  87.8953 348.8161 0001968  96.8178 263.3175 13.12446694265737
ONEWEB-0117             
1 47263U 20100F   26177.44675047  .00000048  00000+0  98008-4 0  9995
2 47263  87.8951 348.8083 0001801  93.3603 266.7732 13.12445001265748
ONEWEB-0118             
1 47264U 20100G   26177.48063555  .00000194  00000+0  50440-3 0  9994
2 47264  87.8952 348.8042 0002133  89.6091 270.5282 13.12442892265943
ONEWEB-0119             
1 47265U 20100H   26177.50604278 -.00000450  00000+0 -12874-2 0  9996
2 47265  87.8942 348.8152 0001847  92.9320 267.2020 13.12443692265928
ONEWEB-0120             
1 47266U 20100J   26177.45366473  .00000319  00000+0  85162-3 0  9996
2 47266  87.8941 348.8268 0001948  96.7782 263.3568 13.12445296265940
ONEWEB-0121             
1 47267U 20100K   26177.44166231 -.00000248  00000+0 -72501-3 0  9992
2 47267  87.8951 348.8161 0001581  85.0660 275.0650 13.12444058265850
ONEWEB-0122             
1 47268U 20100L   26177.43574482 -.00000266  00000+0 -77497-3 0  9992
2 47268  87.8954 348.8220 0001808  98.0477 262.0857 13.12444245265765
ONEWEB-0123             
1 47269U 20100M   26177.43149587 -.00000319  00000+0 -92290-3 0  9994
2 47269  87.8941 348.8290 0001931  90.9123 269.2227 13.12442248265902
ONEWEB-0124             
1 47270U 20100N   26177.49757002 -.00000370  00000+0 -10650-2 0  9995
2 47270  87.8941 348.8186 0001747  89.7366 270.3963 13.12441057265792
ONEWEB-0125             
1 47271U 20100P   26177.47555524  .00000347  00000+0  92787-3 0  9993
2 47271  87.8954 348.8076 0001824  82.3286 277.8049 13.12441204265859
ONEWEB-0126             
1 47272U 20100Q   26177.49602726 -.00000267  00000+0 -77814-3 0  9990
2 47272  87.8946 348.8183 0001931  94.7322 265.4027 13.12442932265923
ONEWEB-0127             
1 47273U 20100R   26177.46200741  .00000450  00000+0  12156-2 0  9998
2 47273  87.8940 348.8236 0001918  96.4316 263.7031 13.12442508265941
ONEWEB-0128             
1 47274U 20100S   26177.48402419  .00000092  00000+0  22047-3 0  9990
2 47274  87.8941 348.8330 0001522  96.1586 263.9716 13.12441211265969
ONEWEB-0129             
1 47275U 20100T   26177.46369805  .00000456  00000+0  12333-2 0  9990
2 47275  87.8951 348.8118 0002751 109.6124 250.5302 13.12444009265891
